ONEWEB-0371             
1 49297U 21090U   25145.91767941  .00000036  00000+0  56482-4 0  9991
2 49297  87.9242  21.9512 0001804  85.6246 274.5093 13.19724004176666
ONEWEB-0372             
1 49298U 21090V   25145.96838100  .00000061  00000+0  11713-3 0  9998
2 49298  87.9268 351.5635 0001668  88.9416 271.1908 13.20770960178727
ONEWEB-0373             
1 49299U 21090W   25145.84383929  .00000073  00000+0  14873-3 0  9993
2 49299  87.9267 351.5998 0001755  80.1248 280.0083 13.20770583179896
ONEWEB-0374             
1 49300U 21090X   25145.60309367  .00000243  00000+0  62188-3 0  9995
2 49300  87.9050   6.8053 0001615  67.0829 293.0471 13.14503302176646
ONEWEB-0375             
1 49301U 21090Y   25145.83121222  .00000162  00000+0  36650-3 0  9998
2 49301  87.9268 351.5801 0002080  69.4881 290.6476 13.20771004179396
ONEWEB-0376             
1 49302U 21090Z   25145.91610195  .00000088  00000+0  18777-3 0  9997
2 49302  87.9235  21.9376 0001657  88.0485 272.0838 13.19723854176652
ONEWEB-0377             
1 49303U 21090AA  25145.58986843  .00000092  00000+0  19535-3 0  9995
2 49303  87.9267 351.6207 0002093  86.2129 273.9244 13.20770444179354
ONEWEB-0378             
1 49304U 21090AB  25145.83924566  .00000098  00000+0  20853-3 0  9999
2 49304  87.9270 351.5785 0001800  82.0391 278.0947 13.20773067178651
